CCSDS_OMM_VERS,COMMENT,CREATION_DATE,ORIGINATOR,OBJECT_NAME,OBJECT_ID,CENTER_NAME,REF_FRAME,TIME_SYSTEM,MEAN_ELEMENT_THEORY,EPOCH,MEAN_MOTION,ECCENTRICITY,INCLINATION,RA_OF_ASC_NODE,ARG_OF_PERICENTER,MEAN_ANOMALY,EPHEMERIS_TYPE,CLASSIFICATION_TYPE,NORAD_CAT_ID,ELEMENT_SET_NO,REV_AT_EPOCH,BSTAR,MEAN_MOTION_DOT,MEAN_MOTION_DDOT,SEMIMAJOR_AXIS,PERIOD,APOAPSIS,PERIAPSIS,OBJECT_TYPE,RCS_SIZE,COUNTRY_CODE,LAUNCH_DATE,SITE,DECAY_DATE,FILE,GP_ID,TLE_LINE0,TLE_LINE1,TLE_LINE2
"3.0","GENERATED VIA SPACE-TRACK.ORG API","2026-03-18T04:49:44","18 SPCS","CZ-4C DEB","2013-037G","EARTH","TEME","UTC","SGP4","2026-03-17T22:22:25.580928","14.73313608","0.00123153","98.1033","84.3263","13.3274","346.8256","0","U","39214","999","67845","0.00013340005000","0.00000812","0.0000000000000","7028.647","97.739","659.168","641.856","DEBRIS","SMALL","PRC","2013-07-19","TSC","","5089495","316267573","0 CZ-4C DEB","1 39214U 13037G   26076.93224052  .00000812  00000-0  13340-3 0  9996","2 39214  98.1033  84.3263 0012315  13.3274 346.8256 14.73313608678453"
"3.0","GENERATED VIA SPACE-TRACK.ORG API","2026-03-18T04:49:44","18 SPCS","DELTA 1 DEB","1978-026DN","EARTH","TEME","UTC","SGP4","2026-03-17T22:17:18.920544","14.93326120","0.00391765","98.1035","73.6045","65.4869","351.0354","0","U","12269","999","38046","0.00075326863000","0.00007956","0.0000000000000","6965.710","96.429","614.864","560.286","DEBRIS","SMALL","US","1978-03-05","AFWTR","","5089495","316257024","0 DELTA 1 DEB","1 12269U 78026DN  26076.92869121  .00007956  00000-0  75327-3 0  9996","2 12269  98.1035  73.6045 0039177  65.4869 351.0354 14.93326120380461"
"3.0","GENERATED VIA SPACE-TRACK.ORG API","2026-03-16T02:37:31","18 SPCS","COSMOS 2506 DEB","2015-029C","EARTH","TEME","UTC","SGP4","2026-03-15T22:10:29.370720","14.72082497","0.00077804","98.1229","147.9337","79.5051","280.7032","0","U","47212","999","28391","0.00069302017000","0.00004311","0.0000000000000","7032.565","97.821","659.901","648.958","DEBRIS","SMALL","CIS","2015-06-23","PKMTR","","5087165","316090380","0 COSMOS 2506 DEB","1 47212U 15029C   26074.92395105  .00004311  00000-0  69302-3 0  9998","2 47212  98.1229 147.9337 0007780  79.5051 280.7032 14.72082497283911"
"3.0","GENERATED VIA SPACE-TRACK.ORG API","2026-03-18T04:49:44","18 SPCS","NOAA 12 DEB","1991-032D","EARTH","TEME","UTC","SGP4","2026-03-17T22:25:14.949984","14.84605484","0.00033347","98.1369","136.5662","220.7378","317.5500","0","U","37831","999","76205","0.00148059680000","0.00012471","0.0000000000000","6992.961","96.995","617.158","612.495","DEBRIS","MEDIUM","US","1991-05-14","AFWTR","","5089495","316267172","0 NOAA 12 DEB","1 37831U 91032D   26076.93420081  .00012471  00000-0  14806-2 0  9991","2 37831  98.1369 136.5662 0003335 220.7378 317.5500 14.84605484762057"
"3.0","GENERATED VIA SPACE-TRACK.ORG API","2026-03-17T17:21:16","18 SPCS","PSLV DEB","2001-049CA","EARTH","TEME","UTC","SGP4","2026-03-17T14:48:40.167648","14.85058827","0.00150634","98.1417","131.0828","38.0082","113.7351","0","U","27130","999","30480","0.00016207603000","0.00001329","0.0000000000000","6991.538","96.966","623.935","602.872","DEBRIS","MEDIUM","IND","2001-10-22","SRI","","5088782","316212467","0 PSLV DEB","1 27130U 01049CA  26076.61713157  .00001329  00000-0  16208-3 0  9994","2 27130  98.1417 131.0828 0015063  38.0082 113.7351 14.85058827304808"
"3.0","GENERATED VIA SPACE-TRACK.ORG API","2026-03-18T04:49:44","18 SPCS","CZ-4 DEB","1990-081CF","EARTH","TEME","UTC","SGP4","2026-03-17T22:25:27.950592","14.66334540","0.00355632","98.1658","133.1265","110.0684","65.8924","0","U","20973","999","85716","0.00042915717000","0.00002342","0.0000000000000","7050.931","98.204","697.871","647.721","DEBRIS","SMALL","PRC","1990-09-03","TSC","","5089495","316259161","0 CZ-4 DEB","1 20973U 90081CF  26076.93435128  .00002342  00000-0  42916-3 0  9991","2 20973  98.1658 133.1265 0035563 110.0684  65.8924 14.66334540857160"
"3.0","GENERATED VIA SPACE-TRACK.ORG API","2026-03-18T04:49:44","18 SPCS","CZ-4 DEB","1999-057CG","EARTH","TEME","UTC","SGP4","2026-03-17T20:24:06.319296","14.71387738","0.00408674","98.1716","36.0507","263.8221","150.0416","0","U","26194","999","63148","0.00032749283000","0.00002000","0.0000000000000","7034.778","97.867","685.393","627.894","DEBRIS","SMALL","PRC","1999-10-14","TSC","","5089495","316260602","0 CZ-4 DEB","1 26194U 99057CG  26076.85007314  .00002000  00000-0  32749-3 0  9991","2 26194  98.1716  36.0507 0040867 263.8221 150.0416 14.71387738631484"
"3.0","GENERATED VIA SPACE-TRACK.ORG API","2026-03-18T04:49:44","18 SPCS","SL-19 DEB","2009-059C","EARTH","TEME","UTC","SGP4","2026-03-17T18:31:48.622656","14.60180426","0.00106362","98.1813","261.5511","127.0732","243.8384","0","U","36038","999","86972","0.00016134677000","0.00000731","0.0000000000000","7070.728","98.618","700.114","685.073","DEBRIS","MEDIUM","CIS","2009-11-02","PKMTR","","5089495","316265755","0 SL-19 DEB","1 36038U 09059C   26076.77209054  .00000731  00000-0  16135-3 0  9998","2 36038  98.1813 261.5511 0010636 127.0732 243.8384 14.60180426869727"
"3.0","GENERATED VIA SPACE-TRACK.ORG API","2026-03-18T04:49:44","18 SPCS","DMSP 5D-2 F15 DEB","1999-067B","EARTH","TEME","UTC","SGP4","2026-03-17T19:37:15.294432","14.48486145","0.00043664","98.1873","92.0947","224.7270","310.9689","0","U","25992","999","37073","0.00072235705000","0.00002668","0.0000000000000","7108.734","99.414","733.703","727.495","DEBRIS","SMALL","US","1999-12-12","AFWTR","","5089495","316261039","0 DMSP 5D-2 F15 DEB","1 25992U 99067B   26076.81753813  .00002668  00000-0  72236-3 0  9990","2 25992  98.1873  92.0947 0004366 224.7270 310.9689 14.48486145370730"
"3.0","GENERATED VIA SPACE-TRACK.ORG API","2026-03-18T04:49:44","18 SPCS","CZ-2C DEB","2014-059C","EARTH","TEME","UTC","SGP4","2026-03-17T21:03:51.911424","14.89356038","0.00575129","98.1876","186.8665","220.2813","139.4136","0","U","40263","999","60947","0.00103440170000","0.00010072","0.0000000000000","6978.083","96.686","640.081","559.815","DEBRIS","SMALL","PRC","2014-09-28","JSC","","5089495","316267904","0 CZ-2C DEB","1 40263U 14059C   26076.87768416  .00010072  00000-0  10344-2 0  9996","2 40263  98.1876 186.8665 0057513 220.2813 139.4136 14.89356038609475"
"3.0","GENERATED VIA SPACE-TRACK.ORG API","2026-03-18T04:49:44","18 SPCS","ALOS DEB","2006-002Z","EARTH","TEME","UTC","SGP4","2026-03-17T21:00:18.182016","14.85322658","0.00020092","98.1892","62.1985","100.7566","320.6570","0","U","35418","999","2048","0.00039464299000","0.00003336","0.0000000000000","6990.710","96.949","613.980","611.171","DEBRIS","SMALL","JPN","2006-01-24","TNSTA","","5089495","316265123","0 ALOS DEB","1 35418U 06002Z   26076.87521044  .00003336  00000-0  39464-3 0  9995","2 35418  98.1892  62.1985 0002009 100.7566 320.6570 14.85322658 20488"
"3.0","GENERATED VIA SPACE-TRACK.ORG API","2026-03-18T04:49:44","18 SPCS","H-2A DEB","2012-025H","EARTH","TEME","UTC","SGP4","2026-03-17T21:46:47.399520","14.92643253","0.00070272","98.1913","205.7083","63.2313","296.9623","0","U","38347","999","74518","0.00040720080000","0.00004136","0.0000000000000","6967.834","96.473","594.596","584.803","DEBRIS","LARGE","JPN","2012-05-17","TNSTA","","5089495","316266808","0 H-2A DEB","1 38347U 12025H   26076.90749305  .00004136  00000-0  40720-3 0  9993","2 38347  98.1913 205.7083 0007027  63.2313 296.9623 14.92643253745188"
"3.0","GENERATED VIA SPACE-TRACK.ORG API","2026-03-18T04:49:44","18 SPCS","ARIANE 1 DEB","1986-019M","EARTH","TEME","UTC","SGP4","2026-03-17T23:06:09.237024","14.62201756","0.00626595","98.1979","99.7254","231.4968","190.6864","0","U","17117","999","4640","0.00072974810000","0.00003730","0.0000000000000","7064.211","98.482","730.340","641.812","DEBRIS","MEDIUM","FR","1986-02-22","FRGUI","","5089495","316258160","0 ARIANE 1 DEB","1 17117U 86019M   26076.96260691  .00003730  00000-0  72975-3 0  9997","2 17117  98.1979  99.7254 0062659 231.4968 190.6864 14.62201756 46401"
"3.0","GENERATED VIA SPACE-TRACK.ORG API","2026-03-15T17:50:51","18 SPCS","DELTA 1 DEB","1975-052MU","EARTH","TEME","UTC","SGP4","2026-03-15T14:01:20.280864","15.00466780","0.00032433","98.1993","198.9931","289.1964","135.3774","0","U","42659","999","66367","0.00075282480000","0.00009419","0.0000000000000","6943.593","95.970","567.710","563.206","DEBRIS","SMALL","US","1975-06-12","AFWTR","","5087142","316055688","0 DELTA 1 DEB","1 42659U 75052MU  26074.58426251  .00009419  00000-0  75282-3 0  9997","2 42659  98.1993 198.9931 0003243 289.1964 135.3774 15.00466780663673"
"3.0","GENERATED VIA SPACE-TRACK.ORG API","2026-03-18T04:49:44","18 SPCS","SL-24 DEB","2004-025J","EARTH","TEME","UTC","SGP4","2026-03-17T20:49:43.508352","14.84660770","0.00107595","98.2121","45.6514","257.9040","159.9984","0","U","28374","999","15858","0.00079706636000","0.00006695","0.0000000000000","6992.788","96.992","622.177","607.129","DEBRIS","MEDIUM","CIS","2004-06-29","TTMTR","","5089495","316261537","0 SL-24 DEB","1 28374U 04025J   26076.86786468  .00006695  00000-0  79707-3 0  9998","2 28374  98.2121  45.6514 0010759 257.9040 159.9984 14.84660770158588"
"3.0","GENERATED VIA SPACE-TRACK.ORG API","2026-03-18T04:49:44","18 SPCS","CZ-2C DEB","2014-014E","EARTH","TEME","UTC","SGP4","2026-03-17T22:31:12.971712","14.90297003","0.00530716","98.2123","190.3386","16.5057","343.7872","0","U","39628","999","63634","0.00089648725000","0.00008888","0.0000000000000","6975.146","96.625","634.029","559.993","DEBRIS","SMALL","PRC","2014-03-31","JSC","","5089495","316268184","0 CZ-2C DEB","1 39628U 14014E   26076.93834458  .00008888  00000-0  89649-3 0  9994","2 39628  98.2123 190.3386 0053072  16.5057 343.7872 14.90297003636347"
